        "name": 'RESOURCESAT 2',
        "norad_catalog_id": '37387',
        "tle_line1": '1 37387U 11015A   22103.80182868 -.00000262  00000-0 -99781-4 0  9995',
        "tle_line2": '2 37387  98.6656 177.4632 0003115 247.6217 112.4647 14.21646258569979',
        "epoch_iso": '2022-04-13T19:14:37.997952Z',
        "inclination_deg": '98.665600',
        "eccentricity": '0.00031150',
        "mean_motion_rev_per_day": '14.21646258',
        "altitude_m": '819790.652',
    },
    {
        "name": 'HAIYANG 2A',
        "norad_catalog_id": '37781',
        "tle_line1": '1 37781U 11043A   22103.99698446 -.00000007  00000-0  35864-4 0  9996',
        "tle_line2": '2 37781  99.3188 110.9692 0001403  61.1139 299.0153 13.78733986536753',
        "epoch_iso": '2022-04-13T23:55:39.457344Z',
        "inclination_deg": '99.318800',
        "eccentricity": '0.00014030',
        "mean_motion_rev_per_day": '13.78733986',
        "altitude_m": '968380.552',
    },
    {
        "name": 'RASAT',
        "norad_catalog_id": '37791',
        "tle_line1": '1 37791U 11044D   22104.10088594  .00000480  00000-0  98483-4 0  9999',
        "tle_line2": '2 37791  98.0922 198.1010 0021221 336.5783  23.4448 14.64956951569692',
        "epoch_iso": '2022-04-14T02:25:16.545216Z',
        "inclination_deg": '98.092200',
        "eccentricity": '0.00212210',
        "mean_motion_rev_per_day": '14.64956951',
        "altitude_m": '677213.593',
    },
    {
        "name": 'SRMSAT',
        "norad_catalog_id": '37841',
        "tle_line1": '1 37841U 11058D   22103.82021291  .00000406  00000-0  78184-4 0  9993',
        "tle_line2": '2 37841  19.9723 285.6008 0011923 354.1283  35.0208 14.10739549542100',
        "epoch_iso": '2022-04-13T19:41:06.395424Z',
        "inclination_deg": '19.972300',
        "eccentricity": '0.00119230',
        "mean_motion_rev_per_day": '14.10739549',
        "altitude_m": '856842.089',
    },
    {
        "name": 'PLEIADES 1',
        "norad_catalog_id": '38012',
        "tle_line1": '1 38012U 11076F   22104.03166385  .00000307  00000-0  75704-4 0  9997',
        "tle_line2": '2 38012  98.1660 179.8311 0001292  99.4188 260.7155 14.58576872549680',
        "epoch_iso": '2022-04-14T00:45:35.756640Z',
        "inclination_deg": '98.166000',
        "eccentricity": '0.00012920',
        "mean_motion_rev_per_day": '14.58576872',
        "altitude_m": '697772.875',
    },
    {
        "name": 'ZY 1',
        "norad_catalog_id": '38038',
        "tle_line1": '1 38038U 11079A   22104.08912772  .00000257  00000-0  10485-3 0  9990',
        "tle_line2": '2 38038  98.5945 168.9827 0008434  96.1435 264.0717 14.35352474540253',
        "epoch_iso": '2022-04-14T02:08:20.635008Z',
        "inclination_deg": '98.594500',
        "eccentricity": '0.00084340',
        "mean_motion_rev_per_day": '14.35352474',
        "altitude_m": '773895.290',
    },
    {
        "name": 'KOMPSAT 3',
        "norad_catalog_id": '38338',
        "tle_line1": '1 38338U 12025B   22103.89884107  .00000521  00000-0  11387-3 0  9999',
        "tle_line2": '2 38338  98.1746  44.6919 0009826 210.8067 149.2555 14.61799686528546',
        "epoch_iso": '2022-04-13T21:34:19.868448Z',
        "inclination_deg": '98.174600',
        "eccentricity": '0.00098260',
        "mean_motion_rev_per_day": '14.61799686',
        "altitude_m": '687368.929',
    },
    {
        "name": 'EXACTVIEW-1',
        "norad_catalog_id": '38709',
        "tle_line1": '1 38709U 12039C   22104.12885844  .00000055  00000-0  44117-4 0  9992',
        "tle_line2": '2 38709  99.0147 169.0007 0010123 240.4336 119.5834 14.24089108505582',
        "epoch_iso": '2022-04-14T03:05:33.369216Z',
        "inclination_deg": '99.014700',
        "eccentricity": '0.00101230',
        "mean_motion_rev_per_day": '14.24089108',
        "altitude_m": '811556.856',
    },
    {
        "name": 'SPOT 6',
        "norad_catalog_id": '38755',
        "tle_line1": '1 38755U 12047A   22103.84151289  .00000314  00000-0  77312-4 0  9990',
        "tle_line2": '2 38755  98.1603 172.0094 0001306  90.6976 269.4357 14.58579757510737',
        "epoch_iso": '2022-04-13T20:11:46.713696Z',
        "inclination_deg": '98.160300',
        "eccentricity": '0.00013060',
        "mean_motion_rev_per_day": '14.58579757',
        "altitude_m": '697763.545',
    },
    {
        "name": 'PLEIADES 1B',
        "norad_catalog_id": '39019',
        "tle_line1": '1 39019U 12068A   22103.92892270  .00000313  00000-0  77097-4 0  9997',
        "tle_line2": '2 39019  98.1983 179.7534 0001440  96.9650 263.1700 14.58554910498521',
        "epoch_iso": '2022-04-13T22:17:38.921280Z',
        "inclination_deg": '98.198300',
        "eccentricity": '0.00014400',
        "mean_motion_rev_per_day": '14.58554910',
        "altitude_m": '697843.905',
    },
    {
        "name": 'GOKTURK 2',
        "norad_catalog_id": '39030',
        "tle_line1": '1 39030U 12073A   22103.89846247  .00000449  00000-0  77663-4 0  9994',
        "tle_line2": '2 39030  97.8647 345.0173 0001414 128.3848 231.7493 14.72870755499855',
        "epoch_iso": '2022-04-13T21:33:47.157408Z',
        "inclination_deg": '97.864700',
        "eccentricity": '0.00014140',
        "mean_motion_rev_per_day": '14.72870755',
        "altitude_m": '651918.419',
    },
    {
        "name": 'LANDSAT 8',
        "norad_catalog_id": '39084',
        "tle_line1": '1 39084U 13008A   22104.14964233  .00000266  00000-0  69061-4 0  9997',
        "tle_line2": '2 39084  98.1865 175.2894 0001220  85.4526 274.6811 14.57107045487635',
        "epoch_iso": '2022-04-14T03:35:29.097312Z',
        "inclination_deg": '98.186500',
        "eccentricity": '0.00012200',
        "mean_motion_rev_per_day": '14.57107045',
        "altitude_m": '702530.529',
    },
    {
        "name": 'SARAL',
        "norad_catalog_id": '39086',
        "tle_line1": '1 39086U 13009A   22103.82971328  .00000090  00000-0  49637-4 0  9999',
        "tle_line2": '2 39086  98.5491 290.4274 0002195  91.9445 268.1990 14.32066381477233',
        "epoch_iso": '2022-04-13T19:54:47.227392Z',
        "inclination_deg": '98.549100',
        "eccentricity": '0.00021950',
        "mean_motion_rev_per_day": '14.32066381',
        "altitude_m": '784832.057',
    },
    {
        "name": 'GAOFEN-1',
        "norad_catalog_id": '39150',
        "tle_line1": '1 39150U 13018A   22103.84985044  .00000670  00000-0  10269-3 0  9995',
        "tle_line2": '2 39150  97.7924 172.0263 0020134 124.0065 236.3044 14.76593237483203',
        "epoch_iso": '2022-04-13T20:23:47.078016Z',
        "inclination_deg": '97.792400',
        "eccentricity": '0.00201340',
        "mean_motion_rev_per_day": '14.76593237',
        "altitude_m": '640098.300',
    },
    {
        "name": 'VNREDSAT 1',
        "norad_catalog_id": '39160',
        "tle_line1": '1 39160U 13021B   22103.87236448  .00000501  00000-0  10702-3 0  9995',
        "tle_line2": '2 39160  98.0801 180.6072 0001503 105.7361 254.3985 14.62883391477170',
        "epoch_iso": '2022-04-13T20:56:12.291072Z',
        "inclination_deg": '98.080100',
        "eccentricity": '0.00015030',
        "mean_motion_rev_per_day": '14.62883391',
        "altitude_m": '683879.077',
    },
    {
        "name": 'KOMPSAT 5',
        "norad_catalog_id": '39227',
        "tle_line1": '1 39227U 13042A   22104.54210934  .00001851  00000-0  13655-3 0  9998',
        "tle_line2": '2 39227  97.6307 291.0231 0001044 110.8370 334.1314 15.04500699474670',
        "epoch_iso": '2022-04-14T13:00:38.246976Z',
        "inclination_deg": '97.630700',
        "eccentricity": '0.00010440',
        "mean_motion_rev_per_day": '15.04500699',
        "altitude_m": '553038.765',
    },
    {
        "name": 'SKYSAT 1',
        "norad_catalog_id": '39418',
        "tle_line1": '1 39418U 13066C   22104.19090583  .00001414  00000-0  11908-3 0  9997',
        "tle_line2": '2 39418  97.5556 177.9028 0020654 118.4537 241.8771 14.99617469459020',
        "epoch_iso": '2022-04-14T04:34:54.263712Z',
        "inclination_deg": '97.555600',
        "eccentricity": '0.00206540',
        "mean_motion_rev_per_day": '14.99617469',
        "altitude_m": '568077.348',
    },
    {
        "name": 'DUBAISAT 2',
        "norad_catalog_id": '39419',
        "tle_line1": '1 39419U 13066D   22104.04797144  .00002041  00000-0  19245-3 0  9998',
        "tle_line2": '2 39419  97.4524 139.2735 0015027 131.0089 229.2451 14.94754685457572',
        "epoch_iso": '2022-04-14T01:09:04.732416Z',
        "inclination_deg": '97.452400',
        "eccentricity": '0.00150270',
        "mean_motion_rev_per_day": '14.94754685',
        "altitude_m": '583134.290',
    },
    {
        "name": 'GPM',
        "norad_catalog_id": '39574',
        "tle_line1": '1 39574U 14009C   22103.80685393  .00020283  00000-0  29112-3 0  9995',
        "tle_line2": '2 39574  65.0046  48.4371 0009883 270.4100  89.5914 15.56122034461545',
        "epoch_iso": '2022-04-13T19:21:52.179552Z',
        "inclination_deg": '65.004600',
        "eccentricity": '0.00098830',
        "mean_motion_rev_per_day": '15.56122034',
        "altitude_m": '398892.975',
    },
    {
        "name": 'SENTINEL 1A',
        "norad_catalog_id": '39634',
        "tle_line1": '1 39634U 14016A   22103.99617845 -.00000057  00000-0 -22888-5 0  9991',
        "tle_line2": '2 39634  98.1816 112.4587 0001417  82.0440 278.0935 14.59198443427622',
        "epoch_iso": '2022-04-13T23:54:29.818080Z',
        "inclination_deg": '98.181600',
        "eccentricity": '0.00014170',
        "mean_motion_rev_per_day": '14.59198443',
        "altitude_m": '695763.328',
    },
    {
        "name": 'KAZEOSAT 1',
        "norad_catalog_id": '39731',
        "tle_line1": '1 39731U 14024A   22104.09445351  .00000193  00000-0  72244-4 0  9990',
        "tle_line2": '2 39731  98.4666 180.1153 0001156  99.0329 261.0999 14.41991924418810',
        "epoch_iso": '2022-04-14T02:16:00.783264Z',
        "inclination_deg": '98.466600',
